[{"OBJECT_NAME":"COSMOS 2493 (SKRL-756 1)","OBJECT_ID":"2013-078A","EPOCH":"2026-03-09T21:08:46.717728","MEAN_MOTION":15.01584319,"ECCENTRICITY":0.00118545,"INCLINATION":82.4165,"RA_OF_ASC_NODE":358.3033,"ARG_OF_PERICENTER":214.7485,"MEAN_ANOMALY":145.2966,"EPHEMERIS_TYPE":0,"CLASSIFICATION_TYPE":"U","NORAD_CAT_ID":39490,"ELEMENT_SET_NO":999,"REV_AT_EPOCH":66305,"BSTAR":0.00040276291,"MEAN_MOTION_DOT":5.252e-5,"MEAN_MOTION_DDOT":0},{"OBJECT_NAME":"STARLINK-5455","OBJECT_ID":"2023-021AS","EPOCH":"2026-03-09T16:38:53.876832","MEAN_MOTION":14.98332438,"ECCENTRICITY":0.000339,"INCLINATION":70.0008,"RA_OF_ASC_NODE":164.5072,"ARG_OF_PERICENTER":273.9527,"MEAN_ANOMALY":86.1245,"EPHEMERIS_TYPE":0,"CLASSIFICATION_TYPE":"U","NORAD_CAT_ID":55668,"ELEMENT_SET_NO":999,"REV_AT_EPOCH":16927,"BSTAR":-4.2750884e-5,"MEAN_MOTION_DOT":-6.03e-6,"MEAN_MOTION_DDOT":0}]
